{
    "links": {
        "self": "http://www.neowsapp.com/rest/v1/neo/3825449?api_key=iIulBulltgU6a56xZRHN4H3l9WmuAYTsLGpBGhQ2"
    },
    "id": "3825449",
    "neo_reference_id": "3825449",
    "name": "(2018 MP5)",
    "designation": "2018 MP5",
    "nasa_jpl_url": "http://ssd.jpl.nasa.gov/sbdb.cgi?sstr=3825449",
    "absolute_magnitude_h": 24.5,
    "estimated_diameter": {
        "kilometers": {
            "estimated_diameter_min": 0.0334622374,
            "estimated_diameter_max": 0.0748238376
        },
        "meters": {
            "estimated_diameter_min": 33.4622374455,
            "estimated_diameter_max": 74.8238376074
        },
        "miles": {
            "estimated_diameter_min": 0.0207924639,
            "estimated_diameter_max": 0.0464933628
        },
        "feet": {
            "estimated_diameter_min": 109.7842471007,
            "estimated_diameter_max": 245.4850393757
        }
    },
    "is_potentially_hazardous_asteroid": false,
    "close_approach_data": [
        {
            "close_approach_date": "2017-12-13",
            "close_approach_date_full": "2017-Dec-13 23:32",
            "epoch_date_close_approach": 1513207920000,
            "relative_velocity": {
                "kilometers_per_second": "11.2069199746",
                "kilometers_per_hour": "40344.9119085665",
                "miles_per_hour": "25068.7592911868"
            },
            "miss_distance": {
                "astronomical": "0.4742850159",
                "lunar": "184.4968711851",
                "kilometers": "70952028.151556133",
                "miles": "44087545.9267073154"
            },
            "orbiting_body": "Earth"
        },
        {
            "close_approach_date": "2018-06-12",
            "close_approach_date_full": "2018-Jun-12 12:59",
            "epoch_date_close_approach": 1528808340000,
            "relative_velocity": {
                "kilometers_per_second": "13.929351948",
                "kilometers_per_hour": "50145.6670126531",
                "miles_per_hour": "31158.5673723899"
            },
            "miss_distance": {
                "astronomical": "0.0950824693",
                "lunar": "36.9870805577",
                "kilometers": "14224134.881620391",
                "miles": "8838467.5702517558"
            },
            "orbiting_body": "Earth"
        }
    ],
    "orbital_data": {
        "orbit_id": "2",
        "orbit_determination_date": "2018-06-22 06:31:39",
        "first_observation_date": "2018-06-18",
        "last_observation_date": "2018-06-22",
        "data_arc_in_days": 4,
        "observations_used": 13,
        "orbit_uncertainty": "9",
        "minimum_orbit_intersection": ".0936319",
        "jupiter_tisserand_invariant": "4.899",
        "epoch_osculation": "2458288.5",
        "eccentricity": ".3291497763896564",
        "semi_major_axis": "1.295099684180222",
        "inclination": "20.71337170393765",
        "ascending_node_longitude": "89.95517761928352",
        "orbital_period": "538.3357518749497",
        "perihelion_distance": ".8688179127299873",
        "perihelion_argument": "91.53978080683956",
        "aphelion_distance": "1.721381455630457",
        "perihelion_time": "2458216.705797549435",
        "mean_anomaly": "48.01076798668048",
        "mean_motion": ".6687276457975703",
        "equinox": "J2000",
        "orbit_class": {
            "orbit_class_type": "APO",
            "orbit_class_description": "Near-Earth asteroid orbits which cross the Earth’s orbit similar to that of 1862 Apollo",
            "orbit_class_range": "a (semi-major axis) > 1.0 AU; q (perihelion) < 1.017 AU"
        }
    },
    "is_sentry_object": false
}